STARLINK-4144           
1 53257U 22086R   26068.61394590 -.00000503  00000+0 -13508-4 0  9999
2 53257  53.2167 194.4603 0001162  98.4624 261.6500 15.08843490201058
LEMUR-2-SIERRINI        
1 60579U 24149DR  26068.80891719  .00014386  00000+0  92040-3 0  9991
2 60579  97.6873 151.1225 0006580 147.8458 212.3173 15.08682764 85461
